[{"OBJECT_NAME":"TOMORROW-S1","OBJECT_ID":"2024-149M","EPOCH":"2026-03-09T17:23:34.533600","MEAN_MOTION":15.31198363,"ECCENTRICITY":0.00018188,"INCLINATION":97.3791,"RA_OF_ASC_NODE":149.6044,"ARG_OF_PERICENTER":207.204,"MEAN_ANOMALY":152.9106,"EPHEMERIS_TYPE":0,"CLASSIFICATION_TYPE":"U","NORAD_CAT_ID":60479,"ELEMENT_SET_NO":999,"REV_AT_EPOCH":8686,"BSTAR":0.0002885603,"MEAN_MOTION_DOT":8.62e-5,"MEAN_MOTION_DDOT":0},{"OBJECT_NAME":"STARLINK-34992","OBJECT_ID":"2025-192J","EPOCH":"2026-03-09T22:00:01.999584","MEAN_MOTION":15.30163898,"ECCENTRICITY":0.00010017,"INCLINATION":53.16,"RA_OF_ASC_NODE":231.0619,"ARG_OF_PERICENTER":78.2264,"MEAN_ANOMALY":232.9057,"EPHEMERIS_TYPE":0,"CLASSIFICATION_TYPE":"U","NORAD_CAT_ID":65412,"ELEMENT_SET_NO":999,"REV_AT_EPOCH":589,"BSTAR":0.0021838208,"MEAN_MOTION_DOT":0.00064812,"MEAN_MOTION_DDOT":0}]
